SIRION PATHFINDER-2     
1 43759U 18099B   26158.40339132  .00005430  00000+0  29855-3 0  9995
2 43759  97.4257 207.6939 0007949 343.9860  16.1120 15.14464069411144
CORVUS BC4              
1 43767U 18099K   26157.66893671  .00005662  00000+0  32935-3 0  9994
2 43767  97.4067 200.9576 0009264  46.3509 313.8488 15.12410191410813
M2 PATHFINDER           
1 45727U 20037E   26158.27108242  .00003212  00000+0  23287-3 0  9997
2 45727  97.8159 349.3911 0011542 180.0595 180.0631 15.04633820324007
NETSAT-4                
1 46504U 20068U   26158.27200028  .00018669  00000+0  41758-3 0  9995
2 46504  97.8612 165.7184 0005161  17.7874 342.3552 15.43533344314246
NETSAT-3                
1 46505U 20068V   26158.27061383  .00017897  00000+0  41675-3 0  9995
2 46505  97.8661 163.9460 0005548  35.2624 324.8988 15.42336147314154
NETSAT-1                
1 46506U 20068W   26157.57162386  .00016988  00000+0  51189-3 0  9994
2 46506  97.8751 157.6478 0006191  61.7667 298.4199 15.34388994313674
NETSAT-2                
1 46507U 20068X   26158.26069587  .00022906  00000+0  47758-3 0  9995
2 46507  97.8622 165.5652 0004765  53.4495 306.7190 15.45571255314206
GREENCUBE (IO-117)      
1 53109U 22080E   26152.46502029 -.00000003  00000+0  00000+0 0  9996
2 53109  70.1435 303.7143 0008869 293.3663  66.6064  6.42583280 91055
SITRO-AIS 5 (KATYS)     
1 57176U 23091L   26158.45184565  .00012875  00000+0  45531-3 0  9994
2 57176  97.5060 222.2602 0012641 133.5667 226.6625 15.29231248162854
SITRO-AIS 6 (CHIRKIN)   
1 57192U 23091AC  26158.40845718  .00010371  00000+0  40817-3 0  9992
2 57192  97.5067 221.3870 0012905 136.7624 223.4629 15.25747787162795
SITRO-AIS 8 (ANOKHIN)   
1 57193U 23091AD  26158.42043505  .00013680  00000+0  44592-3 0  9999
2 57193  97.5056 223.7777 0011807 129.8138 230.4144 15.31868990162954
SITRO-AIS 7 (FARTUSHNIY)
1 57194U 23091AE  26158.40961824  .00009592  00000+0  38132-3 0  9991
2 57194  97.5065 221.2183 0012721 137.6990 222.5231 15.25439573162782
SITRO-AIS 10 (BURDAEV)  
1 57199U 23091AK  26158.49275319  .00020255  00000+0  53857-3 0  9992
2 57199  97.5080 228.8060 0007953 108.9383 251.2724 15.38241263163271
SITRO-AIS 9 (SHCHUKIN)  
1 57201U 23091AM  26158.45103825  .00019046  00000+0  51449-3 0  9995
2 57201  97.5078 228.5008 0008166 109.2138 250.9991 15.37764228163250
SITRO-AIS 12 (SMIRENNIY)
1 57204U 23091AQ  26158.44349631  .00019157  00000+0  51270-3 0  9999
2 57204  97.5091 228.9541 0007793 104.0559 256.1552 15.38053525163274
SITRO-AIS 11 (SHEFFER)  
1 57208U 23091AU  26158.45958097  .00019583  00000+0  51703-3 0  9990
2 57208  97.5089 229.2110 0007686 104.0777 256.1323 15.38469726163296
SITRO-AIS 25            
1 59066U 24039R   26158.52721853  .00003946  00000+0  30802-3 0  9996
2 59066  95.3907 228.4547 0144709   2.7032 357.4942 14.93461189123288
SITRO-AIS 26            
1 59067U 24039S   26158.52727684  .00003944  00000+0  30930-3 0  9995
2 59067  95.3908 228.3543 0145073   3.2763 356.9377 14.93258179123275
SITRO-AIS 27            
1 59068U 24039T   26158.50022240  .00003214  00000+0  25036-3 0  9991
2 59068  95.3912 228.6030 0144164   2.0234 358.1543 14.93676854123290
SITRO-AIS 28            
1 59071U 24039U   26158.54487713  .00004210  00000+0  32685-3 0  9994
2 59071  95.3914 228.6803 0143989   1.7568 358.4133 14.93712381123300
GRBBETA                 
1 60237U 24128C   26157.99911237  .00004983  00000+0  34276-3 0  9995
2 60237  61.9898 252.0093 0041990 132.5865 227.8783 15.06569386104736
OOV-CUBE (TUBSAT-30)    
1 60240U 24128F   26157.87486527  .00002819  00000+0  22099-3 0  9991
2 60240  61.9952 261.5303 0045920 131.4461 229.0588 15.02728483104566
ROBUSTA-3A (MEDITERRAN*)
1 60243U 24128J   26157.61704686  .00009590  00000+0  56280-3 0  9997
2 60243  61.9860 245.6203 0042816 125.8059 234.7027 15.11543644104824
LASARSAT                
1 62391U 24247Q   26154.92379714  .00036882  00000+0  75515-3 0  9992
2 62391  44.9754 336.7002 0008047 258.6055 101.3931 15.45494859 81266
CROCUBE                 
1 62394U 24247T   26158.48786472  .00037807  00000+0  72050-3 0  9992
2 62394  44.9730 314.1817 0008189 280.9624  79.0344 15.47565084 81848
FORESAIL-1 PRIME        
1 66778U 25276DS  26157.65186259  .00005159  00000+0  25256-3 0  9991
2 66778  97.4198 231.1163 0003661 125.3076 234.8501 15.18605290 28809
KNACKSAT-2              
1 67683U 98067XZ  26158.22606588  .00048677  00000+0  61320-3 0  9995
2 67683  51.6300 344.5496 0010424 171.5518 188.5652 15.59067140 18722
