OBJECT_NAME,OBJECT_ID,EPOCH,MEAN_MOTION,ECCENTRICITY,INCLINATION,RA_OF_ASC_NODE,ARG_OF_PERICENTER,MEAN_ANOMALY,EPHEMERIS_TYPE,CLASSIFICATION_TYPE,NORAD_CAT_ID,ELEMENT_SET_NO,REV_AT_EPOCH,BSTAR,MEAN_MOTION_DOT,MEAN_MOTION_DDOT
SIRION PATHFINDER-2,2018-099B,2026-06-07T09:40:53.010048,15.14464069,.0007949,97.4257,207.6939,343.9860,16.1120,0,U,43759,999,41114,.29855E-3,.543E-4,0
CORVUS BC4,2018-099K,2026-06-06T16:03:16.131744,15.12410191,.0009264,97.4067,200.9576,46.3509,313.8488,0,U,43767,999,41081,.32935E-3,.5662E-4,0
M2 PATHFINDER,2020-037E,2026-06-07T06:30:21.521088,15.04633820,.0011542,97.8159,349.3911,180.0595,180.0631,0,U,45727,999,32400,.23287E-3,.3212E-4,0
NETSAT-4,2020-068U,2026-06-07T06:31:40.824192,15.43533344,.0005161,97.8612,165.7184,17.7874,342.3552,0,U,46504,999,31424,.41758E-3,.18669E-3,0
NETSAT-3,2020-068V,2026-06-07T06:29:41.034912,15.42336147,.0005548,97.8661,163.9460,35.2624,324.8988,0,U,46505,999,31415,.41675E-3,.17897E-3,0
NETSAT-1,2020-068W,2026-06-06T13:43:08.301504,15.34388994,.00061912,97.8751,157.6478,61.7667,298.4199,0,U,46506,999,31367,.51189457E-3,.16988E-3,0
NETSAT-2,2020-068X,2026-06-07T06:15:24.123168,15.45571255,.0004765,97.8622,165.5652,53.4495,306.7190,0,U,46507,999,31420,.47758E-3,.22906E-3,0
GREENCUBE (IO-117),2022-080E,2026-06-01T11:09:37.753056,6.42583280,.00088692,70.1435,303.7143,293.3663,66.6064,0,U,53109,999,9105,0,-.3E-7,0
SITRO-AIS 5 (KATYS),2023-091L,2026-06-07T10:50:39.464160,15.29231248,.0012641,97.5060,222.2602,133.5667,226.6625,0,U,57176,999,16285,.45531E-3,.12875E-3,0
SITRO-AIS 6 (CHIRKIN),2023-091AC,2026-06-07T09:48:10.700352,15.25747787,.0012905,97.5067,221.3870,136.7624,223.4629,0,U,57192,999,16279,.40817E-3,.10371E-3,0
SITRO-AIS 8 (ANOKHIN),2023-091AD,2026-06-07T10:05:25.588320,15.31868990,.0011807,97.5056,223.7777,129.8138,230.4144,0,U,57193,999,16295,.44592E-3,.1368E-3,0
SITRO-AIS 7 (FARTUSHNIY),2023-091AE,2026-06-07T09:49:51.015936,15.25439573,.0012721,97.5065,221.2183,137.6990,222.5231,0,U,57194,999,16278,.38132E-3,.9592E-4,0
SITRO-AIS 10 (BURDAEV),2023-091AK,2026-06-07T11:49:33.875616,15.38241263,.0007953,97.5080,228.8060,108.9383,251.2724,0,U,57199,999,16327,.53857E-3,.20255E-3,0
SITRO-AIS 9 (SHCHUKIN),2023-091AM,2026-06-07T10:49:29.704800,15.37764228,.0008166,97.5078,228.5008,109.2138,250.9991,0,U,57201,999,16325,.51449E-3,.19046E-3,0
SITRO-AIS 12 (SMIRENNIY),2023-091AQ,2026-06-07T10:38:38.081184,15.38053525,.0007793,97.5091,228.9541,104.0559,256.1552,0,U,57204,999,16327,.5127E-3,.19157E-3,0
SITRO-AIS 11 (SHEFFER),2023-091AU,2026-06-07T11:01:47.795808,15.38469726,.0007686,97.5089,229.2110,104.0777,256.1323,0,U,57208,999,16329,.51703E-3,.19583E-3,0
SITRO-AIS 25,2024-039R,2026-06-07T12:39:11.680992,14.93461189,.0144709,95.3907,228.4547,2.7032,357.4942,0,U,59066,999,12328,.30802E-3,.3946E-4,0
SITRO-AIS 26,2024-039S,2026-06-07T12:39:16.718976,14.93258179,.0145073,95.3908,228.3543,3.2763,356.9377,0,U,59067,999,12327,.3093E-3,.3944E-4,0
SITRO-AIS 27,2024-039T,2026-06-07T12:00:19.215360,14.93676854,.0144164,95.3912,228.6030,2.0234,358.1543,0,U,59068,999,12329,.25036E-3,.3214E-4,0
SITRO-AIS 28,2024-039U,2026-06-07T13:04:37.384032,14.93712381,.0143989,95.3914,228.6803,1.7568,358.4133,0,U,59071,999,12330,.32685E-3,.421E-4,0
GRBBETA,2024-128C,2026-06-06T23:58:43.308768,15.06569386,.004199,61.9898,252.0093,132.5865,227.8783,0,U,60237,999,10473,.34276E-3,.4983E-4,0
OOV-CUBE (TUBSAT-30),2024-128F,2026-06-06T20:59:48.359328,15.02728483,.004592,61.9952,261.5303,131.4461,229.0588,0,U,60240,999,10456,.22099E-3,.2819E-4,0
ROBUSTA-3A (MEDITERRANEE),2024-128J,2026-06-06T14:48:32.848704,15.11543644,.00428162,61.9860,245.6203,125.8059,234.7027,0,U,60243,999,10482,.56280144E-3,.959E-4,0
LASARSAT,2024-247Q,2026-06-03T22:10:16.072896,15.45494859,.00080478,44.9754,336.7002,258.6055,101.3931,0,U,62391,999,8126,.75515127E-3,.36882E-3,0
CROCUBE,2024-247T,2026-06-07T11:42:31.511808,15.47565084,.0008189,44.9730,314.1817,280.9624,79.0344,0,U,62394,999,8184,.7205E-3,.37807E-3,0
FORESAIL-1 PRIME,2025-276DS,2026-06-06T15:38:40.927776,15.18605290,.0003661,97.4198,231.1163,125.3076,234.8501,0,U,66778,999,2880,.25256E-3,.5159E-4,0
KNACKSAT-2,1998-067XZ,2026-06-07T05:25:32.092032,15.59067140,.0010424,51.6300,344.5496,171.5518,188.5652,0,U,67683,999,1872,.6132E-3,.48677E-3,0
